{
  "type": "FeatureCollection",
  "features": [
    {
      "type": "Feature",
      "id": "parcel-1",
      "properties": {
        "id": "parcel-1",
        "ulpin": "14-8842-9901-2020",
        "state_survey_no": "TS-SNG-AMP-433/1A",
        "survey_number": "TS-SNG-AMP-433/1A",
        "owner_masked": "R***sh R***dy",
        "legal_ror_area_sqm": 36938.0,
        "gis_area_sqm": 36942.0,
        "zoning": "Residential Zone R1",
        "tax_status": "Paid",
        "dispute_tag": "CLEAN",
        "permit_status": "Approved (G+2 Sanctioned)",
        "trust_score": "A",
        "trust_num": 96,
        "status": "CLEAN",
        "state": "Telangana",
        "district": "Sangareddy",
        "mandal": "Ameenpur",
        "village": "Sultanpur",
        "building": {
          "sanctioned": {
            "height": 9.5,
            "floors": 3,
            "far": 1.4
          },
          "detected": {
            "height": 9.4,
            "floors": 3,
            "far": 1.38
          }
        },
        "violations": [],
        "buffer_zones": []
      },
      "geometry": {
        "type": "Polygon",
        "coordinates": [
          [
            [
              78.3883521,
              17.4265219
            ],
            [
              78.3877351,
              17.4267765
            ],
            [
              78.3873285,
              17.427073
            ],
            [
              78.3869215,
              17.4274405
            ],
            [
              78.3861691,
              17.4280771
            ],
            [
              78.3860001,
              17.4281872
            ],
            [
              78.3859464,
              17.4283356
            ],
            [
              78.3860162,
              17.4286581
            ],
            [
              78.3861154,
              17.4287681
            ],
            [
              78.3862576,
              17.4287834
            ],
            [
              78.3865392,
              17.4287169
            ],
            [
              78.3868101,
              17.4286376
            ],
            [
              78.3869496,
              17.4286325
            ],
            [
              78.3870649,
              17.428699
            ],
            [
              78.3871186,
              17.4287374
            ],
            [
              78.3872111,
              17.4287502
            ],
            [
              78.38725,
              17.4287924
            ],
            [
              78.3872285,
              17.4288346
            ],
            [
              78.3871588,
              17.4288756
            ],
            [
              78.3871374,
              17.4289549
            ],
            [
              78.3872004,
              17.429056
            ],
            [
              78.3873989,
              17.4291404
            ],
            [
              78.3874525,
              17.4292095
            ],
            [
              78.3874834,
              17.4293055
            ],
            [
              78.3876598,
              17.4299127
            ],
            [
              78.3877704,
              17.4301628
            ],
            [
              78.3879313,
              17.430434
            ],
            [
              78.3879662,
              17.4304673
            ],
            [
              78.3880708,
              17.4304494
            ],
            [
              78.388229,
              17.4303957
            ],
            [
              78.3883578,
              17.4304136
            ],
            [
              78.3884731,
              17.4304724
            ],
            [
              78.3886662,
              17.4307053
            ],
            [
              78.3888304,
              17.4310124
            ],
            [
              78.3889161,
              17.4311432
            ],
            [
              78.3891517,
              17.4313284
            ],
            [
              78.3892134,
              17.4314001
            ],
            [
              78.3892442,
              17.4315204
            ],
            [
              78.3892362,
              17.4316278
            ],
            [
              78.3892013,
              17.4317366
            ],
            [
              78.389153,
              17.4318313
            ],
            [
              78.3891276,
              17.4319388
            ],
            [
              78.3890051,
              17.4320219
            ],
            [
              78.3889997,
              17.4320682
            ],
            [
              78.3890304,
              17.4321047
            ],
            [
              78.3890126,
              17.432126
            ],
            [
              78.3889479,
              17.4324561
            ],
            [
              78.3887185,
              17.4328418
            ],
            [
              78.3887317,
              17.4328953
            ],
            [
              78.3887816,
              17.432933
            ],
            [
              78.3888064,
              17.4329521
            ],
            [
              78.3888301,
              17.4329662
            ],
            [
              78.3889483,
              17.4329828
            ],
            [
              78.3890573,
              17.4330328
            ],
            [
              78.3890773,
              17.4330781
            ],
            [
              78.3890652,
              17.4331786
            ],
            [
              78.3891289,
              17.4332592
            ],
            [
              78.3891245,
              17.4332833
            ],
            [
              78.3891469,
              17.4333159
            ],
            [
              78.3891873,
              17.4333627
            ],
            [
              78.3891832,
              17.4334808
            ],
            [
              78.3892061,
              17.4334998
            ],
            [
              78.3891765,
              17.4335432
            ],
            [
              78.3891134,
              17.4335339
            ],
            [
              78.3890762,
              17.4335523
            ],
            [
              78.3890635,
              17.4335954
            ],
            [
              78.3890858,
              17.4336423
            ],
            [
              78.3891384,
              17.43366
            ],
            [
              78.3891738,
              17.43364
            ],
            [
              78.3891884,
              17.4337071
            ],
            [
              78.3891719,
              17.433746
            ],
            [
              78.3891811,
              17.4338133
            ],
            [
              78.3891967,
              17.4338129
            ],
            [
              78.3892398,
              17.4338371
            ],
            [
              78.3892509,
              17.433877
            ],
            [
              78.3892416,
              17.4338768
            ],
            [
              78.3892329,
              17.4339139
            ],
            [
              78.3892722,
              17.4339643
            ],
            [
              78.3892462,
              17.4340582
            ],
            [
              78.3892622,
              17.4341098
            ],
            [
              78.3892505,
              17.4341225
            ],
            [
              78.3892559,
              17.4341409
            ],
            [
              78.3892796,
              17.4341729
            ],
            [
              78.3893563,
              17.4341592
            ],
            [
              78.389424,
              17.4341959
            ],
            [
              78.3894658,
              17.4342671
            ],
            [
              78.3894875,
              17.4344894
            ],
            [
              78.3895138,
              17.4347425
            ],
            [
              78.3895038,
              17.4348156
            ],
            [
              78.3895212,
              17.4348941
            ],
            [
              78.3894867,
              17.434954
            ],
            [
              78.3894846,
              17.4350265
            ],
            [
              78.3894068,
              17.4350525
            ],
            [
              78.3893706,
              17.4351248
            ],
            [
              78.3892943,
              17.4350978
            ],
            [
              78.3892495,
              17.4351251
            ],
            [
              78.3892132,
              17.435117
            ],
            [
              78.389112,
              17.4351688
            ],
            [
              78.3890017,
              17.4351294
            ],
            [
              78.388931,
              17.43518
            ],
            [
              78.3887947,
              17.4352613
            ],
            [
              78.3888133,
              17.4355583
            ],
            [
              78.3890223,
              17.4357295
            ],
            [
              78.3890919,
              17.435838
            ],
            [
              78.38911,
              17.4359516
            ],
            [
              78.3891981,
              17.4360442
            ],
            [
              78.3892501,
              17.4359948
            ],
            [
              78.3894038,
              17.4360284
            ],
            [
              78.3896613,
              17.4359983
            ],
            [
              78.390407,
              17.4358924
            ],
            [
              78.3905424,
              17.4358444
            ],
            [
              78.3906017,
              17.4358253
            ],
            [
              78.3906671,
              17.4358041
            ],
            [
              78.3907738,
              17.4358073
            ],
            [
              78.3908831,
              17.4358252
            ],
            [
              78.3909789,
              17.4358598
            ],
            [
              78.3913296,
              17.4359449
            ],
            [
              78.391502,
              17.4359756
            ],
            [
              78.3915355,
              17.4359756
            ],
            [
              78.3915737,
              17.4359704
            ],
            [
              78.3916086,
              17.4359506
            ],
            [
              78.3916294,
              17.4359321
            ],
            [
              78.3916401,
              17.435895
            ],
            [
              78.3916113,
              17.4347959
            ],
            [
              78.3916133,
              17.4347549
            ],
            [
              78.3916052,
              17.4347121
            ],
            [
              78.3915838,
              17.4346833
            ],
            [
              78.3913162,
              17.4345451
            ],
            [
              78.3912794,
              17.4344907
            ],
            [
              78.3912539,
              17.4344216
            ],
            [
              78.3912277,
              17.4342297
            ],
            [
              78.3912519,
              17.433945
            ],
            [
              78.3912773,
              17.4338887
            ],
            [
              78.3913122,
              17.4338593
            ],
            [
              78.3914208,
              17.4338427
            ],
            [
              78.3914933,
              17.4338414
            ],
            [
              78.3915543,
              17.4338164
            ],
            [
              78.3916917,
              17.4337249
            ],
            [
              78.3917722,
              17.4336686
            ],
            [
              78.3918037,
              17.4336181
            ],
            [
              78.3918198,
              17.4335695
            ],
            [
              78.3918171,
              17.4335247
            ],
            [
              78.3917937,
              17.4334057
            ],
            [
              78.3917219,
              17.4332848
            ],
            [
              78.3916824,
              17.4332138
            ],
            [
              78.3916763,
              17.433162
            ],
            [
              78.391677,
              17.4331127
            ],
            [
              78.3917018,
              17.4330551
            ],
            [
              78.3918205,
              17.432924
            ],
            [
              78.3918527,
              17.4328459
            ],
            [
              78.3918694,
              17.4327967
            ],
            [
              78.3918768,
              17.4327532
            ],
            [
              78.3918768,
              17.4327225
            ],
            [
              78.3918641,
              17.4327052
            ],
            [
              78.3918487,
              17.4327033
            ],
            [
              78.3918165,
              17.4327199
            ],
            [
              78.3917736,
              17.4327365
            ],
            [
              78.3917434,
              17.432732
            ],
            [
              78.3917105,
              17.4327116
            ],
            [
              78.3916864,
              17.4326585
            ],
            [
              78.3916663,
              17.4325971
            ],
            [
              78.3916482,
              17.4325491
            ],
            [
              78.3915979,
              17.4324582
            ],
            [
              78.3915496,
              17.4324032
            ],
            [
              78.3914436,
              17.4323226
            ],
            [
              78.3913323,
              17.4322829
            ],
            [
              78.3912559,
              17.4322817
            ],
            [
              78.391154,
              17.4322919
            ],
            [
              78.3910252,
              17.43232
            ],
            [
              78.3908857,
              17.4323213
            ],
            [
              78.3907315,
              17.4322753
            ],
            [
              78.3906698,
              17.432219
            ],
            [
              78.3906524,
              17.4321268
            ],
            [
              78.3906497,
              17.4319976
            ],
            [
              78.3906604,
              17.4318441
            ],
            [
              78.3907127,
              17.4317161
            ],
            [
              78.390808,
              17.4316669
            ],
            [
              78.3908334,
              17.4315798
            ],
            [
              78.3908381,
              17.4315044
            ],
            [
              78.3908301,
              17.4314513
            ],
            [
              78.3908153,
              17.4314135
            ],
            [
              78.3906135,
              17.4310981
            ],
            [
              78.39058,
              17.4309663
            ],
            [
              78.3905438,
              17.4307616
            ],
            [
              78.3905411,
              17.4303163
            ],
            [
              78.3905572,
              17.4301321
            ],
            [
              78.3906215,
              17.4299299
            ],
            [
              78.3908951,
              17.4295435
            ],
            [
              78.3910748,
              17.4293388
            ],
            [
              78.3912934,
              17.429207
            ],
            [
              78.3914624,
              17.429088
            ],
            [
              78.391563,
              17.4289779
            ],
            [
              78.3916368,
              17.4289357
            ],
            [
              78.391728,
              17.4289204
            ],
            [
              78.3922986,
              17.4287946
            ],
            [
              78.3927378,
              17.4286555
            ],
            [
              78.3931482,
              17.4284648
            ],
            [
              78.3933775,
              17.4283766
            ],
            [
              78.3936498,
              17.428319
            ],
            [
              78.3938643,
              17.4282652
            ],
            [
              78.3939663,
              17.4281667
            ],
            [
              78.3940333,
              17.4280784
            ],
            [
              78.3940467,
              17.4279697
            ],
            [
              78.3940038,
              17.4278084
            ],
            [
              78.3938831,
              17.4275065
            ],
            [
              78.3937812,
              17.4272813
            ],
            [
              78.3937034,
              17.4271239
            ],
            [
              78.393631,
              17.4270868
            ],
            [
              78.3935103,
              17.4270791
            ],
            [
              78.3934043,
              17.4270893
            ],
            [
              78.3932877,
              17.4271482
            ],
            [
              78.3928759,
              17.4272019
            ],
            [
              78.3927432,
              17.4271955
            ],
            [
              78.3923542,
              17.4271584
            ],
            [
              78.3921853,
              17.4270612
            ],
            [
              78.3920458,
              17.4269563
            ],
            [
              78.3919787,
              17.4267413
            ],
            [
              78.3919653,
              17.4266748
            ],
            [
              78.3918849,
              17.4266441
            ],
            [
              78.3917829,
              17.4267004
            ],
            [
              78.3916086,
              17.4267592
            ],
            [
              78.391335,
              17.426749
            ],
            [
              78.3912116,
              17.4266876
            ],
            [
              78.3910534,
              17.4266505
            ],
            [
              78.3909541,
              17.4266492
            ],
            [
              78.3908857,
              17.4267016
            ],
            [
              78.3908764,
              17.4267567
            ],
            [
              78.3909434,
              17.4268078
            ],
            [
              78.3909944,
              17.4268488
            ],
            [
              78.390993,
              17.4268808
            ],
            [
              78.3909803,
              17.4268993
            ],
            [
              78.3909427,
              17.4268968
            ],
            [
              78.3908857,
              17.4268788
            ],
            [
              78.3908509,
              17.426891
            ],
            [
              78.3908361,
              17.4269294
            ],
            [
              78.3908267,
              17.4269633
            ],
            [
              78.3908522,
              17.4271712
            ],
            [
              78.3908978,
              17.4272761
            ],
            [
              78.3909555,
              17.4273069
            ],
            [
              78.3910346,
              17.4273081
            ],
            [
              78.3910896,
              17.4273593
            ],
            [
              78.3911392,
              17.4274246
            ],
            [
              78.3911405,
              17.427518
            ],
            [
              78.3911245,
              17.4275845
            ],
            [
              78.3910775,
              17.4276843
            ],
            [
              78.390981,
              17.4277457
            ],
            [
              78.3908764,
              17.427715
            ],
            [
              78.390808,
              17.4277112
            ],
            [
              78.3907463,
              17.4277355
            ],
            [
              78.3907329,
              17.4277688
            ],
            [
              78.390757,
              17.4278136
            ],
            [
              78.3908522,
              17.4278801
            ],
            [
              78.3910252,
              17.4280093
            ],
            [
              78.391099,
              17.428081
            ],
            [
              78.3911365,
              17.4281015
            ],
            [
              78.3912063,
              17.4280848
            ],
            [
              78.39128,
              17.4280951
            ],
            [
              78.3913524,
              17.428145
            ],
            [
              78.39139,
              17.4282345
            ],
            [
              78.3913659,
              17.4282678
            ],
            [
              78.3912639,
              17.4283036
            ],
            [
              78.3911768,
              17.4283267
            ],
            [
              78.3910185,
              17.428383
            ],
            [
              78.3909407,
              17.428365
            ],
            [
              78.3908978,
              17.4283561
            ],
            [
              78.3908562,
              17.4283842
            ],
            [
              78.3908468,
              17.4284252
            ],
            [
              78.3908026,
              17.4284456
            ],
            [
              78.3906658,
              17.4284316
            ],
            [
              78.3905853,
              17.4283945
            ],
            [
              78.3905236,
              17.4282588
            ],
            [
              78.3904687,
              17.4281616
            ],
            [
              78.3903822,
              17.4280949
            ],
            [
              78.3903252,
              17.4280835
            ],
            [
              78.3902608,
              17.4281015
            ],
            [
              78.3902326,
              17.4281245
            ],
            [
              78.3901575,
              17.4281194
            ],
            [
              78.3901079,
              17.4280938
            ],
            [
              78.3900824,
              17.4280618
            ],
            [
              78.3900972,
              17.4280042
            ],
            [
              78.3901052,
              17.4279287
            ],
            [
              78.3901267,
              17.4278878
            ],
            [
              78.3901897,
              17.4278801
            ],
            [
              78.3902407,
              17.4278929
            ],
            [
              78.3902554,
              17.4278891
            ],
            [
              78.3902601,
              17.427875
            ],
            [
              78.3902313,
              17.4278359
            ],
            [
              78.3902145,
              17.4277841
            ],
            [
              78.3902353,
              17.4277521
            ],
            [
              78.390291,
              17.427747
            ],
            [
              78.3903915,
              17.4277771
            ],
            [
              78.3905008,
              17.4277944
            ],
            [
              78.3906028,
              17.4277784
            ],
            [
              78.390637,
              17.4277387
            ],
            [
              78.390647,
              17.4276626
            ],
            [
              78.3906738,
              17.4275909
            ],
            [
              78.3907248,
              17.4275628
            ],
            [
              78.3907999,
              17.4275551
            ],
            [
              78.3908334,
              17.4275167
            ],
            [
              78.3908321,
              17.427445
            ],
            [
              78.3908281,
              17.4273862
            ],
            [
              78.3907972,
              17.4272979
            ],
            [
              78.3907221,
              17.4272454
            ],
            [
              78.3904767,
              17.4271482
            ],
            [
              78.3904231,
              17.4270881
            ],
            [
              78.3903855,
              17.4270126
            ],
            [
              78.3903466,
              17.4269985
            ],
            [
              78.3902568,
              17.4270036
            ],
            [
              78.3901615,
              17.4270049
            ],
            [
              78.3901119,
              17.427019
            ],
            [
              78.3901066,
              17.4270535
            ],
            [
              78.3901334,
              17.4270842
            ],
            [
              78.3901441,
              17.4271149
            ],
            [
              78.390132,
              17.4271418
            ],
            [
              78.3900905,
              17.4271469
            ],
            [
              78.3900234,
              17.4271252
            ],
            [
              78.3899711,
              17.4270996
            ],
            [
              78.3899711,
              17.4270535
            ],
            [
              78.3899952,
              17.4270279
            ],
            [
              78.3900341,
              17.4270343
            ],
            [
              78.3900553,
              17.4270414
            ],
            [
              78.3900734,
              17.4270417
            ],
            [
              78.3900801,
              17.4270308
            ],
            [
              78.390073,
              17.4270113
            ],
            [
              78.3900502,
              17.4269819
            ],
            [
              78.3900234,
              17.4269486
            ],
            [
              78.390002,
              17.4269243
            ],
            [
              78.3900033,
              17.4268693
            ],
            [
              78.3899436,
              17.4267694
            ],
            [
              78.389947,
              17.4267192
            ],
            [
              78.3899842,
              17.4266856
            ],
            [
              78.3900244,
              17.4266741
            ],
            [
              78.3900824,
              17.4266773
            ],
            [
              78.3901659,
              17.4266924
            ],
            [
              78.3902055,
              17.4266911
            ],
            [
              78.3902822,
              17.4267208
            ],
            [
              78.3903292,
              17.4267221
            ],
            [
              78.3903553,
              17.4267099
            ],
            [
              78.390358,
              17.4266716
            ],
            [
              78.3903386,
              17.4266165
            ],
            [
              78.3902896,
              17.426559
            ],
            [
              78.3902594,
              17.4265417
            ],
            [
              78.3902467,
              17.426511
            ],
            [
              78.3902615,
              17.4264604
            ],
            [
              78.3902816,
              17.4263945
            ],
            [
              78.3902789,
              17.4263606
            ],
            [
              78.3902654,
              17.4263138
            ],
            [
              78.3899656,
              17.4260642
            ],
            [
              78.3890989,
              17.426189
            ],
            [
              78.3888318,
              17.4262306
            ],
            [
              78.3883521,
              17.4265219
            ]
          ]
        ]
      }
    },
    {
      "type": "Feature",
      "id": "parcel-2",
      "properties": {
        "id": "parcel-2",
        "ulpin": "14-8842-9901-2021",
        "state_survey_no": "TS-RR-SUR-401/1A",
        "survey_number": "TS-RR-SUR-401/1A",
        "owner_masked": "S***l G***ti",
        "legal_ror_area_sqm": 4500.0,
        "gis_area_sqm": 4515.0,
        "zoning": "Waterbody Buffer (FTL)",
        "tax_status": "Defaulter / Disputed",
        "dispute_tag": "CRITICAL_FTL_ENCROACHMENT",
        "permit_status": "Unsanctioned / Illegal",
        "trust_score": "F",
        "trust_num": 14,
        "status": "CRITICAL",
        "state": "Telangana",
        "district": "Hyderabad",
        "mandal": "Shaikpet",
        "village": "Madhapur",
        "building": {
          "sanctioned": null,
          "detected": {
            "type": "Commercial Warehouse",
            "height": 8.5,
            "floors": 1,
            "far": 0.0
          }
        },
        "violations": [
          {
            "id": "V-HYDRAA-01",
            "severity": "CRITICAL",
            "type": "FTL_ENCROACHMENT",
            "description": "CRITICAL: Illegal Commercial Warehouse inside Durgam Cheruvu 30m FTL Lake Buffer",
            "details": "Structure encroaches 2,818 m\u00b2 past notified Full Tank Level (FTL) buffer boundary line. Statutory Demolition Notice required.",
            "encroachment_area_sqm": 2818.4
          }
        ],
        "buffer_zones": [
          {
            "type": "Feature",
            "properties": {
              "name": "Durgam Cheruvu 30m FTL Buffer",
              "type": "waterbody_ftl"
            },
            "geometry": {
              "type": "Polygon",
              "coordinates": [
                [
                  [
                    78.3797,
                    17.4337
                  ],
                  [
                    78.381,
                    17.4346
                  ],
                  [
                    78.3827,
                    17.4352
                  ],
                  [
                    78.3842,
                    17.435
                  ],
                  [
                    78.3853,
                    17.4342
                  ],
                  [
                    78.3858,
                    17.4327
                  ],
                  [
                    78.3855,
                    17.4311
                  ],
                  [
                    78.3844,
                    17.43
                  ],
                  [
                    78.3826,
                    17.4297
                  ],
                  [
                    78.381,
                    17.4304
                  ],
                  [
                    78.38,
                    17.4316
                  ],
                  [
                    78.3797,
                    17.4337
                  ]
                ]
              ]
            }
          }
        ]
      },
      "geometry": {
        "type": "Polygon",
        "coordinates": [
          [
            [
              78.3849,
              17.4344
            ],
            [
              78.3857,
              17.4344
            ],
            [
              78.3857,
              17.4338
            ],
            [
              78.3849,
              17.4338
            ],
            [
              78.3849,
              17.4344
            ]
          ]
        ]
      }
    },
    {
      "type": "Feature",
      "id": "parcel-3",
      "properties": {
        "id": "parcel-3",
        "ulpin": "07-8842-9901-2022",
        "state_survey_no": "DL-MCD-LJP-108/4",
        "survey_number": "DL-MCD-LJP-108/4",
        "owner_masked": "A***nd S***ma",
        "legal_ror_area_sqm": 220.0,
        "gis_area_sqm": 218.0,
        "zoning": "Dense Commercial",
        "tax_status": "Overdue",
        "dispute_tag": "UNAPPROVED_HEIGHT_FAR",
        "permit_status": "G+2 Sanctioned (G+5 Built)",
        "trust_score": "C",
        "trust_num": 32,
        "status": "WARNING",
        "state": "Delhi NCT",
        "district": "South Delhi",
        "mandal": "Defence Colony",
        "village": "Lajpat Nagar",
        "building": {
          "sanctioned": {
            "height": 9.0,
            "floors": 3,
            "far": 1.5
          },
          "detected": {
            "height": 18.5,
            "floors": 6,
            "far": 3.8
          }
        },
        "violations": [
          {
            "id": "V-MCD-01",
            "severity": "WARNING",
            "type": "HEIGHT_AND_FAR_VIOLATION",
            "description": "STRUCTURAL ALERT: Unauthorized G+5 Construction (Sanctioned G+2 9.0m Limit)",
            "details": "Drone photogrammetry detects 18.5m height and FAR 3.8 (allowed 1.5). Zero setback from adjacent plots presents severe structural risk.",
            "encroachment_area_sqm": 85.0
          }
        ],
        "buffer_zones": []
      },
      "geometry": {
        "type": "Polygon",
        "coordinates": [
          [
            [
              77.2395,
              28.5698
            ],
            [
              77.2401,
              28.5699
            ],
            [
              77.2402,
              28.5694
            ],
            [
              77.2396,
              28.5693
            ],
            [
              77.2395,
              28.5698
            ]
          ]
        ]
      }
    },
    {
      "type": "Feature",
      "id": "parcel-4",
      "properties": {
        "id": "parcel-4",
        "ulpin": "14-8842-9901-2023",
        "state_survey_no": "TS-RR-FRQ-33/2",
        "survey_number": "TS-RR-FRQ-33/2",
        "owner_masked": "S***ta D**i",
        "legal_ror_area_sqm": 34310.0,
        "gis_area_sqm": 34305.0,
        "zoning": "Village Abadi - Habitation",
        "tax_status": "Paid",
        "dispute_tag": "CLEAN",
        "permit_status": "Approved (SVAMITVA Property Card)",
        "trust_score": "A",
        "trust_num": 94,
        "status": "CLEAN",
        "state": "Telangana",
        "district": "Rangareddy",
        "mandal": "Farooqnagar",
        "village": "Nagulapalle",
        "building": {
          "sanctioned": null,
          "detected": {
            "type": "Rural Household Dwelling",
            "height": 4.5,
            "floors": 1,
            "far": 0.0
          }
        },
        "violations": [],
        "buffer_zones": []
      },
      "geometry": {
        "type": "Polygon",
        "coordinates": [
          [
            [
              78.3853291,
              17.4362585
            ],
            [
              78.3851459,
              17.4359691
            ],
            [
              78.3855962,
              17.4357096
            ],
            [
              78.3857835,
              17.4360054
            ],
            [
              78.3854891,
              17.4361751
            ],
            [
              78.3855346,
              17.4362468
            ],
            [
              78.3854351,
              17.4363041
            ],
            [
              78.3853856,
              17.4362259
            ],
            [
              78.3853291,
              17.4362585
            ]
          ]
        ]
      }
    },
    {
      "type": "Feature",
      "id": "parcel-5",
      "properties": {
        "id": "parcel-5",
        "ulpin": "14-8842-9901-2024",
        "state_survey_no": "TS-WRG-ELK-876/B",
        "survey_number": "TS-WRG-ELK-876/B",
        "owner_masked": "V***am P***el",
        "legal_ror_area_sqm": 69291.0,
        "gis_area_sqm": 71000.0,
        "zoning": "Agricultural / Govt Commons",
        "tax_status": "Overdue",
        "dispute_tag": "CRITICAL_GOVT_LAND_ENCROACHMENT",
        "permit_status": "Unsanctioned / Contested Mutation",
        "trust_score": "E",
        "trust_num": 18,
        "status": "CRITICAL",
        "state": "Telangana",
        "district": "Warangal_Urban",
        "mandal": "Elkathurthi",
        "village": "Elkathurthi",
        "building": {
          "sanctioned": null,
          "detected": {
            "type": "Masonry Farm Shed & Boundary Wall",
            "height": 4.0,
            "floors": 1,
            "far": 0.0
          }
        },
        "violations": [
          {
            "id": "V-WRG-01",
            "severity": "CRITICAL",
            "type": "GOVT_LAND_ENCROACHMENT",
            "description": "CRITICAL: Area discrepancy & Encroachment on Village Commons",
            "details": "GIS boundary extends 1,709 m\u00b2 into government grazing land. Mutation entries contested by legal heirs.",
            "encroachment_area_sqm": 1709.0
          }
        ],
        "buffer_zones": []
      },
      "geometry": {
        "type": "Polygon",
        "coordinates": [
          [
            [
              78.3856318,
              17.4354835
            ],
            [
              78.385478,
              17.4349793
            ],
            [
              78.3856346,
              17.4347348
            ],
            [
              78.3858411,
              17.4346513
            ],
            [
              78.385929,
              17.4348778
            ],
            [
              78.3859947,
              17.4350761
            ],
            [
              78.3860591,
              17.4352974
            ],
            [
              78.3860779,
              17.4353896
            ],
            [
              78.386096,
              17.4356026
            ],
            [
              78.3858796,
              17.4356192
            ],
            [
              78.3856318,
              17.4354835
            ]
          ]
        ]
      }
    },
    {
      "type": "Feature",
      "id": "parcel-6",
      "properties": {
        "id": "parcel-6",
        "ulpin": "14-8842-9901-2025",
        "state_survey_no": "TS-SDP-MLG-210/F",
        "survey_number": "TS-SDP-MLG-210/F",
        "owner_masked": "R***sh M***to",
        "legal_ror_area_sqm": 97106.0,
        "gis_area_sqm": 97450.0,
        "zoning": "Protected Forest Fringe",
        "tax_status": "Defaulter / Forest Violation",
        "dispute_tag": "CRITICAL_FOREST_ENCROACHMENT",
        "permit_status": "Unsanctioned Excavation",
        "trust_score": "F",
        "trust_num": 8,
        "status": "CRITICAL",
        "state": "Telangana",
        "district": "Siddipet",
        "mandal": "Mulug",
        "village": "Achaipally",
        "building": {
          "sanctioned": null,
          "detected": {
            "type": "Commercial Kiln & Pit",
            "height": 5.0,
            "floors": 1,
            "far": 0.0
          }
        },
        "violations": [
          {
            "id": "V-FOR-01",
            "severity": "CRITICAL",
            "type": "FOREST_ENCROACHMENT",
            "description": "CRITICAL: Commercial clay excavation in notified protected forest boundary",
            "details": "Forest Conservation Act Section 2 breach. Commercial brick kiln operation without environmental clearance.",
            "encroachment_area_sqm": 4200.0
          }
        ],
        "buffer_zones": []
      },
      "geometry": {
        "type": "Polygon",
        "coordinates": [
          [
            [
              78.3897022,
              17.4371982
            ],
            [
              78.3897002,
              17.4370882
            ],
            [
              78.3897578,
              17.4370872
            ],
            [
              78.3897598,
              17.4371973
            ],
            [
              78.3897022,
              17.4371982
            ]
          ]
        ]
      }
    }
  ]
}